NORAD_CAT_ID,OBJECT_NAME,OBJECT_TYPE,EPOCH,MEAN_MOTION,ECCENTRICITY,INCLINATION,RA_OF_ASC_NODE,ARG_OF_PERICENTER,MEAN_ANOMALY,BSTAR,MEAN_MOTION_DOT,MEAN_MOTION_DDOT,TLE_LINE0,TLE_LINE1,TLE_LINE2,SEMIMAJOR_AXIS,PERIOD,APOGEE,PERIGEE,DECAYED
52500.0,STARLINK-3866,PAYLOAD,2022-09-04 14:00:01,15.08896486,0.0001662,53.2132,34.7199,56.9918,325.6607,-0.0042913,-0.00068045,0.0,0 STARLINK-3866,1 52500U 22049BB  22247.58335648 -.00068045  00000-0 -42913-2 0  9994,2 52500  53.2132  34.7199 0001662  56.9918 325.6607 15.08896486  1304,6917.708000000001,95.434,540.722,538.423,0.0
52500.0,STARLINK-3866,PAYLOAD,2022-09-04 20:00:01,15.08837344,0.0001701,53.213,33.5985,51.1753,250.1505,0.0019495,0.00030873,0.0,0 STARLINK-3866,1 52500U 22049BB  22247.83334491  .00030873  00000-0  19495-2 0  9992,2 52500  53.2130  33.5985 0001701  51.1753 250.1505 15.08837344 19171,6917.889,95.438,540.93,538.577,0.0
52500.0,STARLINK-3866,PAYLOAD,2022-09-05 06:00:00,15.08834924,0.0001927,53.2174,31.7194,60.7887,344.9755,0.00020778,3.02e-05,0.0,0 STARLINK-3866,1 52500U 22049BB  22248.25001157  .00003020  00000-0  20778-3 0  9990,2 52500  53.2174  31.7194 0001927  60.7887 344.9755 15.08834924 19232,6917.896,95.438,541.094,538.428,0.0
52500.0,STARLINK-3866,PAYLOAD,2022-09-05 14:00:01,15.08837105,0.0001628,53.2127,30.2305,56.3393,1.0659999999999998,-0.001527,-0.00024506,0.0,0 STARLINK-3866,1 52500U 22049BB  22248.58334491 -.00024506  00000-0 -15270-2 0  9990,2 52500  53.2127  30.2305 0001628  56.3393   1.0660 15.08837105 19284,6917.889,95.438,540.88,538.628,0.0
52500.0,STARLINK-3866,PAYLOAD,2022-09-05 22:00:00,15.0882199,0.0001645,53.2122,28.7345,49.5611,19.4241,-0.00083313,-0.00013516,0.0,0 STARLINK-3866,1 52500U 22049BB  22248.91667824 -.00013516  00000-0 -83313-3 0  9999,2 52500  53.2122  28.7345 0001645  49.5611  19.4241 15.08821990  1308,6917.935,95.439,540.938,538.6619999999998,0.0
52500.0,STARLINK-3866,PAYLOAD,2022-09-06 12:00:00,15.08833095,0.0001530999999999,53.2125,26.1146,56.7121,302.5095,-0.0011365,-0.00018326,0.0,0 STARLINK-3866,1 52500U 22049BB  22249.50001157 -.00018326  00000-0 -11365-2 0  9997,2 52500  53.2125  26.1146 0001531  56.7121 302.5095 15.08833095 19426,6917.901,95.438,540.826,538.707,0.0
52500.0,STARLINK-3866,PAYLOAD,2022-09-06 14:00:01,15.08831734,0.0001587,53.2123,25.741,54.1534,37.9639,-0.001357,-0.00021815,0.0,0 STARLINK-3866,1 52500U 22049BB  22249.58334491 -.00021815  00000-0 -13570-2 0  9992,2 52500  53.2123  25.7410 0001587  54.1534  37.9639 15.08831734  1303,6917.906,95.438,540.869,538.673,0.0
52500.0,STARLINK-3866,PAYLOAD,2022-09-06 22:00:00,15.08827475,0.0001647,53.2121,24.2447,48.1582,55.5378,0.0011880999999999,0.00018665,0.0,0 STARLINK-3866,1 52500U 22049BB  22249.91667824  .00018665  00000-0  11881-2 0  9998,2 52500  53.2121  24.2447 0001647  48.1582  55.5378 15.08827475  1301,6917.919,95.438,540.923,538.644,0.0
52500.0,STARLINK-3866,PAYLOAD,2022-09-07 04:00:00,15.08822318,0.0001511,53.2124,23.1209,54.5603,327.8316,0.0019291,0.00030532,0.0,0 STARLINK-3866,1 52500U 22049BB  22250.16667824  .00030532  00000-0  19291-2 0  9997,2 52500  53.2124  23.1209 0001511  54.5603 327.8316 15.08822318 19524,6917.934,95.439,540.845,538.754,0.0
52500.0,STARLINK-3866,PAYLOAD,2022-09-07 14:00:01,15.08863447,0.0001633,53.2124,21.2512,51.9619,74.9148,-0.0022267,-0.00035574,0.0,0 STARLINK-3866,1 52500U 22049BB  22250.58334491 -.00035574  00000-0 -22267-2 0  9994,2 52500  53.2124  21.2512 0001633  51.9619  74.9148 15.08863447  1301,6917.809,95.436,540.803,538.544,0.0
52500.0,STARLINK-3866,PAYLOAD,2022-09-07 22:00:00,15.08842927,0.0001638,53.2124,19.7548,45.2941,93.1947,-0.00063743,-0.00010419,0.0,0 STARLINK-3866,1 52500U 22049BB  22250.91667824 -.00010419  00000-0 -63743-3 0  9996,2 52500  53.2124  19.7548 0001638  45.2941  93.1947 15.08842927 19636,6917.871,95.437,540.87,538.6030000000002,0.0
52500.0,STARLINK-3866,PAYLOAD,2022-09-08 14:00:01,15.0886006,0.0001669,53.2129,16.7614,48.7959,112.8854,-0.0015960999999999,-0.00025614,0.0,0 STARLINK-3866,1 52500U 22049BB  22251.58334491 -.00025614  00000-0 -15961-2 0  9992,2 52500  53.2129  16.7614 0001669  48.7959 112.8854 15.08860060  1302,6917.819,95.436,540.839,538.529,0.0
52500.0,STARLINK-3866,PAYLOAD,2022-09-08 22:00:00,15.08857311,0.0001751,53.213,15.2649,45.7325,127.5647,-0.0014112999999999,-0.0002269,0.0,0 STARLINK-3866,1 52500U 22049BB  22251.91667824 -.00022690  00000-0 -14113-2 0  9997,2 52500  53.2130  15.2649 0001751  45.7325 127.5647 15.08857311 19781,6917.8269999999975,95.436,540.904,538.481,0.0
52500.0,STARLINK-3866,PAYLOAD,2022-09-09 14:00:01,15.08833091,0.0001713,53.2136,12.2719,46.8456,149.6504,-0.00043817,-7.254e-05,0.0,0 STARLINK-3866,1 52500U 22049BB  22252.58334491 -.00007254  00000-0 -43817-3 0  9995,2 52500  53.2136  12.2719 0001713  46.8456 149.6504 15.08833091  1302,6917.901999999999,95.438,540.952,538.581,0.0
52500.0,STARLINK-3866,PAYLOAD,2022-09-09 22:00:00,15.08853775,0.0001694,53.2137,10.7754,42.7042,165.3712,-0.0033178,-0.00052725,0.0,0 STARLINK-3866,1 52500U 22049BB  22252.91667824 -.00052725  00000-0 -33178-2 0  9992,2 52500  53.2137  10.7754 0001694  42.7042 165.3712 15.08853775 19934,6917.8380000000025,95.437,540.875,538.531,0.0
52500.0,STARLINK-3866,PAYLOAD,2022-09-10 06:00:02,15.08808239,0.0001503,53.214,9.2774,47.0267,172.715,0.0030953,0.00049275,0.0,0 STARLINK-3866,1 52500U 22049BB  22253.25002315  .00049275  00000-0  30953-2 0  9990,2 52500  53.2140   9.2774 0001503  47.0267 172.7150 15.08808239 19987,6917.977,95.44,540.882,538.803,0.0
52500.0,STARLINK-3866,PAYLOAD,2022-09-10 14:00:01,15.08843118,0.0001692,53.2141,7.7827,44.3058,186.9482,-0.0012860999999999,-0.000207,0.0,0 STARLINK-3866,1 52500U 22049BB  22253.58334491 -.00020700  00000-0 -12861-2 0  9991,2 52500  53.2141   7.7827 0001692  44.3058 186.9482 15.08843118  1304,6917.871,95.437,540.906,538.565,0.0
52500.0,STARLINK-3866,PAYLOAD,2022-09-10 22:00:00,15.08847367,0.0001735,53.214,6.2860000000000005,43.6717,199.177,-0.00253,-0.00040336,0.0,0 STARLINK-3866,1 52500U 22049BB  22253.91667824 -.00040336  00000-0 -25300-2 0  9996,2 52500  53.2140   6.2860 0001735  43.6717 199.1770 15.08847367 20099,6917.858,95.437,540.923,538.523,0.0
52500.0,STARLINK-3866,PAYLOAD,2022-09-11 14:00:01,15.08844477,0.0001757,53.2141,3.2937,45.8241,220.1986,-0.00040165,-6.676e-05,0.0,0 STARLINK-3866,1 52500U 22049BB  22254.58334491 -.00006676  00000-0 -40165-3 0  9997,2 52500  53.2141   3.2937 0001757  45.8241 220.1986 15.08844477  1308,6917.8669999999975,95.437,540.947,538.516,0.0
52500.0,STARLINK-3866,PAYLOAD,2022-09-11 22:00:00,15.08859089,0.0001683,53.2138,1.7968,42.5394,235.0786,-0.0031675,-0.00050373,0.0,0 STARLINK-3866,1 52500U 22049BB  22254.91667824 -.00050373  00000-0 -31675-2 0  9991,2 52500  53.2138   1.7968 0001683  42.5394 235.0786 15.08859089  1300,6917.821999999999,95.436,540.851,538.523,0.0
52500.0,STARLINK-3866,PAYLOAD,2022-09-12 14:00:01,15.0885929,0.0001723,53.2137,358.8046,44.0889,256.7262,-0.0016236,-0.00026049,0.0,0 STARLINK-3866,1 52500U 22049BB  22255.58334491 -.00026049  00000-0 -16236-2 0  9995,2 52500  53.2137 358.8046 0001723  44.0889 256.7262 15.08859290  1306,6917.821,95.436,540.878,538.494,0.0
52500.0,STARLINK-3866,PAYLOAD,2022-09-12 22:00:00,15.0886104,0.0001706,53.2133,357.3076,43.8324,268.5968,-0.0016886,-0.00027077,0.0,0 STARLINK-3866,1 52500U 22049BB  22255.91667824 -.00027077  00000-0 -16886-2 0  9994,2 52500  53.2133 357.3076 0001706  43.8324 268.5968 15.08861040 20391,6917.816,95.436,540.861,538.501,0.0
52500.0,STARLINK-3866,PAYLOAD,2022-09-13 14:00:01,15.08843299,0.0001764999999999,53.2132,354.3154,43.9268,291.6969,-0.0014491,-0.00023279,0.0,0 STARLINK-3866,1 52500U 22049BB  22256.58334491 -.00023279  00000-0 -14491-2 0  9999,2 52500  53.2132 354.3154 0001765  43.9268 291.6969 15.08843299  1301,6917.87,95.437,540.956,538.514,0.0
52500.0,STARLINK-3866,PAYLOAD,2022-09-13 22:00:00,15.0884553,0.0001717,53.2127,352.8182,43.3543,303.8513,-0.0047593,-0.00075254,0.0,0 STARLINK-3866,1 52500U 22049BB  22256.91667824 -.00075254  00000-0 -47593-2 0  9994,2 52500  53.2127 352.8182 0001717  43.3543 303.8513 15.08845530  1307,6917.863,95.437,540.9159999999998,538.5409999999998,0.0
52500.0,STARLINK-3866,PAYLOAD,2022-09-14 06:00:00,15.08790456,0.0001578,53.2129,351.3208,49.1004,309.6736,0.0024582,0.00038998,0.0,0 STARLINK-3866,1 52500U 22049BB  22257.25001157  .00038998  00000-0  24582-2 0  9998,2 52500  53.2129 351.3208 0001578  49.1004 309.6736 15.08790456 20592,6918.031999999997,95.441,540.988,538.805,0.0
52500.0,STARLINK-3866,PAYLOAD,2022-09-14 14:00:01,15.08805451,0.0001784,53.2127,349.8261,43.7363,326.5903,0.00089686,0.00014001,0.0,0 STARLINK-3866,1 52500U 22049BB  22257.58334491  .00014001  00000-0  89686-3 0  9990,2 52500  53.2127 349.8261 0001784  43.7363 326.5903 15.08805451  1302,6917.986,95.44,541.085,538.617,0.0
52500.0,STARLINK-3866,PAYLOAD,2022-09-14 22:00:00,15.08836851,0.0001735,53.2125,348.3287,42.5576,339.3254,-0.0013681,-0.00021994,0.0,0 STARLINK-3866,1 52500U 22049BB  22257.91667824 -.00021994  00000-0 -13681-2 0  9998,2 52500  53.2125 348.3287 0001735  42.5576 339.3254 15.08836851 20693,6917.89,95.438,540.955,538.555,0.0
52500.0,STARLINK-3866,PAYLOAD,2022-09-15 14:00:01,15.08847651,0.0001861,53.2126,345.3365,42.2833,2.7856,0.00055517,8.56e-05,0.0,0 STARLINK-3866,1 52500U 22049BB  22258.58334491  .00008560  00000-0  55517-3 0  9990,2 52500  53.2126 345.3365 0001861  42.2833   2.7856 15.08847651  1307,6917.857,95.437,541.009,538.435,0.0
52500.0,STARLINK-3866,PAYLOAD,2022-09-15 16:00:00,15.08838987,0.0001855999999999,53.2127,344.9626,40.0362,97.938,0.0018074999999999,0.00028595,0.0,0 STARLINK-3866,1 52500U 22049BB  22258.66667824  .00028595  00000-0  18075-2 0  9995,2 52500  53.2127 344.9626 0001856  40.0362  97.9380 15.08838987  1300,6917.8830000000025,95.438,541.0319999999998,538.465,0.0
